[Satellite]
VERSION=1.1
NAME=INSAT-4B
NICKNAME=INSAT-4B
TLE1=1 30793U 07007A   15054.57967718 -.00000283  00000-0  00000+0 0  9994
TLE2=2 30793   0.0580 259.9607 0005647  34.8440 160.4750  1.00269472 29151
